CCSDS_OMM_VERS = 2.0
CREATION_DATE  = 
ORIGINATOR     = 

OBJECT_NAME    = SL-16 R/B
OBJECT_ID      = 1996-051B
CENTER_NAME    = EARTH
REF_FRAME      = TEME
TIME_SYSTEM    = UTC
MEAN_ELEMENT_THEORY = SGP/SGP4

EPOCH          = 2025-11-04T19:28:06.610368
MEAN_MOTION    = 14.12392191
ECCENTRICITY   = .00176079
INCLINATION    = 70.7591
RA_OF_ASC_NODE = 79.5616
ARG_OF_PERICENTER = 309.6836
MEAN_ANOMALY   = 50.2730

EPHEMERIS_TYPE = 0
CLASSIFICATION_TYPE = U
NORAD_CAT_ID   = 24298
ELEMENT_SET_NO = 999
REV_AT_EPOCH   = 50401
BSTAR          = -.22368334E-4
MEAN_MOTION_DOT = -.91E-6
MEAN_MOTION_DDOT = 0

CCSDS_OMM_VERS = 2.0
CREATION_DATE  = 
ORIGINATOR     = 

OBJECT_NAME    = ORBVIEW 2 (SEASTAR)
OBJECT_ID      = 1997-037A
CENTER_NAME    = EARTH
REF_FRAME      = TEME
TIME_SYSTEM    = UTC
MEAN_ELEMENT_THEORY = SGP/SGP4

EPOCH          = 2025-11-04T20:31:42.664224
MEAN_MOTION    = 14.35371707
ECCENTRICITY   = .00032045
INCLINATION    = 98.8444
RA_OF_ASC_NODE = 104.9816
ARG_OF_PERICENTER = 76.5514
MEAN_ANOMALY   = 283.6028

EPHEMERIS_TYPE = 0
CLASSIFICATION_TYPE = U
NORAD_CAT_ID   = 24883
ELEMENT_SET_NO = 999
REV_AT_EPOCH   = 49056
BSTAR          = .13033056E-3
MEAN_MOTION_DOT = .327E-5
MEAN_MOTION_DDOT = 0

CCSDS_OMM_VERS = 2.0
CREATION_DATE  = 
ORIGINATOR     = 

OBJECT_NAME    = SL-16 R/B
OBJECT_ID      = 1998-043G
CENTER_NAME    = EARTH
REF_FRAME      = TEME
TIME_SYSTEM    = UTC
MEAN_ELEMENT_THEORY = SGP/SGP4

EPOCH          = 2025-11-04T20:08:24.329472
MEAN_MOTION    = 14.26010654
ECCENTRICITY   = .00102758
INCLINATION    = 98.8059
RA_OF_ASC_NODE = 256.4577
ARG_OF_PERICENTER = 22.5346
MEAN_ANOMALY   = 337.6283

EPHEMERIS_TYPE = 0
CLASSIFICATION_TYPE = U
NORAD_CAT_ID   = 25400
ELEMENT_SET_NO = 999
REV_AT_EPOCH   = 42119
BSTAR          = .55136979E-4
MEAN_MOTION_DOT = .87E-6
MEAN_MOTION_DDOT = 0

CCSDS_OMM_VERS = 2.0
CREATION_DATE  = 
ORIGINATOR     = 

OBJECT_NAME    = SL-16 R/B
OBJECT_ID      = 1998-045B
CENTER_NAME    = EARTH
REF_FRAME      = TEME
TIME_SYSTEM    = UTC
MEAN_ELEMENT_THEORY = SGP/SGP4

EPOCH          = 2025-11-04T20:01:16.160448
MEAN_MOTION    = 14.16167649
ECCENTRICITY   = .00089495
INCLINATION    = 71.0105
RA_OF_ASC_NODE = 84.1371
ARG_OF_PERICENTER = 227.9087
MEAN_ANOMALY   = 132.1276

EPHEMERIS_TYPE = 0
CLASSIFICATION_TYPE = U
NORAD_CAT_ID   = 25407
ELEMENT_SET_NO = 999
REV_AT_EPOCH   = 40942
BSTAR          = .11844715E-3
MEAN_MOTION_DOT = .187E-5
MEAN_MOTION_DDOT = 0

CCSDS_OMM_VERS = 2.0
CREATION_DATE  = 
ORIGINATOR     = 

OBJECT_NAME    = ISS (ZARYA)
OBJECT_ID      = 1998-067A
CENTER_NAME    = EARTH
REF_FRAME      = TEME
TIME_SYSTEM    = UTC
MEAN_ELEMENT_THEORY = SGP/SGP4

EPOCH          = 2025-11-04T20:58:11.069472
MEAN_MOTION    = 15.49753834
ECCENTRICITY   = .00050432
INCLINATION    = 51.6335
RA_OF_ASC_NODE = 329.9349
ARG_OF_PERICENTER = 17.8705
MEAN_ANOMALY   = 342.2460

EPHEMERIS_TYPE = 0
CLASSIFICATION_TYPE = U
NORAD_CAT_ID   = 25544
ELEMENT_SET_NO = 999
REV_AT_EPOCH   = 53698
BSTAR          = .18804931E-3
MEAN_MOTION_DOT = .10201E-3
MEAN_MOTION_DDOT = 0

CCSDS_OMM_VERS = 2.0
CREATION_DATE  = 
ORIGINATOR     = 

OBJECT_NAME    = CZ-4B R/B
OBJECT_ID      = 1999-025C
CENTER_NAME    = EARTH
REF_FRAME      = TEME
TIME_SYSTEM    = UTC
MEAN_ELEMENT_THEORY = SGP/SGP4

EPOCH          = 2025-11-04T21:15:43.812864
MEAN_MOTION    = 14.18228920
ECCENTRICITY   = .00367668
INCLINATION    = 98.6828
RA_OF_ASC_NODE = 351.0017
ARG_OF_PERICENTER = 345.5712
MEAN_ANOMALY   = 187.7567

EPHEMERIS_TYPE = 0
CLASSIFICATION_TYPE = U
NORAD_CAT_ID   = 25732
ELEMENT_SET_NO = 999
REV_AT_EPOCH   = 37047
BSTAR          = .62686991E-4
MEAN_MOTION_DOT = .86E-6
MEAN_MOTION_DDOT = 0

CCSDS_OMM_VERS = 2.0
CREATION_DATE  = 
ORIGINATOR     = 

OBJECT_NAME    = OKEAN-O
OBJECT_ID      = 1999-039A
CENTER_NAME    = EARTH
REF_FRAME      = TEME
TIME_SYSTEM    = UTC
MEAN_ELEMENT_THEORY = SGP/SGP4

EPOCH          = 2025-11-04T14:14:46.785120
MEAN_MOTION    = 14.80061540
ECCENTRICITY   = .0001686
INCLINATION    = 97.9659
RA_OF_ASC_NODE = 4.6162
ARG_OF_PERICENTER = 73.0275
MEAN_ANOMALY   = 287.1121

EPHEMERIS_TYPE = 0
CLASSIFICATION_TYPE = U
NORAD_CAT_ID   = 25860
ELEMENT_SET_NO = 999
REV_AT_EPOCH   = 41588
BSTAR          = .12046E-3
MEAN_MOTION_DOT = .86E-5
MEAN_MOTION_DDOT = 0

CCSDS_OMM_VERS = 2.0
CREATION_DATE  = 
ORIGINATOR     = 

OBJECT_NAME    = SL-16 R/B
OBJECT_ID      = 1999-039B
CENTER_NAME    = EARTH
REF_FRAME      = TEME
TIME_SYSTEM    = UTC
MEAN_ELEMENT_THEORY = SGP/SGP4

EPOCH          = 2025-11-04T21:29:47.565024
MEAN_MOTION    = 14.81501548
ECCENTRICITY   = .00136886
INCLINATION    = 98.0181
RA_OF_ASC_NODE = 3.0345
ARG_OF_PERICENTER = 305.5112
MEAN_ANOMALY   = 54.4823

EPHEMERIS_TYPE = 0
CLASSIFICATION_TYPE = U
NORAD_CAT_ID   = 25861
ELEMENT_SET_NO = 999
REV_AT_EPOCH   = 41838
BSTAR          = .89231308E-4
MEAN_MOTION_DOT = .646E-5
MEAN_MOTION_DDOT = 0

CCSDS_OMM_VERS = 2.0
CREATION_DATE  = 
ORIGINATOR     = 

OBJECT_NAME    = DELTA 2 R/B
OBJECT_ID      = 1999-041E
CENTER_NAME    = EARTH
REF_FRAME      = TEME
TIME_SYSTEM    = UTC
MEAN_ELEMENT_THEORY = SGP/SGP4

EPOCH          = 2025-11-04T18:08:23.062272
MEAN_MOTION    = 14.11263802
ECCENTRICITY   = .05047426
INCLINATION    = 51.7635
RA_OF_ASC_NODE = 80.0508
ARG_OF_PERICENTER = 339.8296
MEAN_ANOMALY   = 18.3307

EPHEMERIS_TYPE = 0
CLASSIFICATION_TYPE = U
NORAD_CAT_ID   = 25876
ELEMENT_SET_NO = 999
REV_AT_EPOCH   = 34538
BSTAR          = .19129575E-3
MEAN_MOTION_DOT = .946E-5
MEAN_MOTION_DDOT = 0

CCSDS_OMM_VERS = 2.0
CREATION_DATE  = 
ORIGINATOR     = 

OBJECT_NAME    = HELIOS 1B
OBJECT_ID      = 1999-064A
CENTER_NAME    = EARTH
REF_FRAME      = TEME
TIME_SYSTEM    = UTC
MEAN_ELEMENT_THEORY = SGP/SGP4

EPOCH          = 2025-11-04T23:46:18.462144
MEAN_MOTION    = 14.87040996
ECCENTRICITY   = .00025119
INCLINATION    = 98.1759
RA_OF_ASC_NODE = 202.5421
ARG_OF_PERICENTER = 94.3237
MEAN_ANOMALY   = 265.8265

EPHEMERIS_TYPE = 0
CLASSIFICATION_TYPE = U
NORAD_CAT_ID   = 25977
ELEMENT_SET_NO = 999
REV_AT_EPOCH   = 66672
BSTAR          = .25307791E-3
MEAN_MOTION_DOT = .221E-4
MEAN_MOTION_DDOT = 0

CCSDS_OMM_VERS = 2.0
CREATION_DATE  = 
ORIGINATOR     = 

OBJECT_NAME    = TERRA
OBJECT_ID      = 1999-068A
CENTER_NAME    = EARTH
REF_FRAME      = TEME
TIME_SYSTEM    = UTC
MEAN_ELEMENT_THEORY = SGP/SGP4

EPOCH          = 2025-11-04T22:26:25.177632
MEAN_MOTION    = 14.60883770
ECCENTRICITY   = .00018267
INCLINATION    = 97.9803
RA_OF_ASC_NODE = 1.9950
ARG_OF_PERICENTER = 182.5757
MEAN_ANOMALY   = 280.6420

EPHEMERIS_TYPE = 0
CLASSIFICATION_TYPE = U
NORAD_CAT_ID   = 25994
ELEMENT_SET_NO = 999
REV_AT_EPOCH   = 37686
BSTAR          = .1216721E-3
MEAN_MOTION_DOT = .551E-5
MEAN_MOTION_DDOT = 0

CCSDS_OMM_VERS = 2.0
CREATION_DATE  = 
ORIGINATOR     = 

OBJECT_NAME    = SL-16 R/B
OBJECT_ID      = 2000-006B
CENTER_NAME    = EARTH
REF_FRAME      = TEME
TIME_SYSTEM    = UTC
MEAN_ELEMENT_THEORY = SGP/SGP4

EPOCH          = 2025-11-04T21:18:38.622528
MEAN_MOTION    = 14.15800323
ECCENTRICITY   = .00163562
INCLINATION    = 71.0042
RA_OF_ASC_NODE = 0.2472
ARG_OF_PERICENTER = 3.3626
MEAN_ANOMALY   = 356.7604

EPHEMERIS_TYPE = 0
CLASSIFICATION_TYPE = U
NORAD_CAT_ID   = 26070
ELEMENT_SET_NO = 999
REV_AT_EPOCH   = 33089
BSTAR          = .13910289E-3
MEAN_MOTION_DOT = .226E-5
MEAN_MOTION_DDOT = 0

