SL-16 R/B               
1 24298U 96051B   25308.81118762 -.00000091  00000+0 -22368-4 0  9994
2 24298  70.7591  79.5616 0017607 309.6836  50.2730 14.12392191504016
ORBVIEW 2 (SEASTAR)     
1 24883U 97037A   25308.85535491  .00000327  00000+0  13033-3 0  9993
2 24883  98.8444 104.9816 0003204  76.5514 283.6028 14.35371707490561
SL-16 R/B               
1 25400U 98043G   25308.83917048  .00000087  00000+0  55137-4 0  9992
2 25400  98.8059 256.4577 0010275  22.5346 337.6283 14.26010654421193
SL-16 R/B               
1 25407U 98045B   25308.83421482  .00000187  00000+0  11845-3 0  9991
2 25407  71.0105  84.1371 0008949 227.9087 132.1276 14.16167649409429
ISS (ZARYA)             
1 25544U 98067A   25308.87373923  .00010201  00000+0  18805-3 0  9998
2 25544  51.6335 329.9349 0005043  17.8705 342.2460 15.49753834536985
CZ-4B R/B               
1 25732U 99025C   25308.88592376  .00000086  00000+0  62687-4 0  9996
2 25732  98.6828 351.0017 0036766 345.5712 187.7567 14.18228920370473
OKEAN-O                 
1 25860U 99039A   25308.59359705  .00000860  00000+0  12046-3 0  9991
2 25860  97.9659   4.6162 0001686  73.0275 287.1121 14.80061540415889
SL-16 R/B               
1 25861U 99039B   25308.89568941  .00000646  00000+0  89231-4 0  9992
2 25861  98.0181   3.0345 0013688 305.5112  54.4823 14.81501548418386
DELTA 2 R/B             
1 25876U 99041E   25308.75582248  .00000946  00000+0  19130-3 0  9995
2 25876  51.7635  80.0508 0504742 339.8296  18.3307 14.11263802345383
HELIOS 1B               
1 25977U 99064A   25308.99049146  .00002210  00000+0  25308-3 0  9993
2 25977  98.1759 202.5421 0002511  94.3237 265.8265 14.87040996666723
TERRA                   
1 25994U 99068A   25308.93501363  .00000551  00000+0  12167-3 0  9999
2 25994  97.9803   1.9950 0001826 182.5757 280.6420 14.60883770376869
SL-16 R/B               
1 26070U 00006B   25308.88794702  .00000226  00000+0  13910-3 0  9990
2 26070  71.0042   0.2472 0016356   3.3626 356.7604 14.15800323330898
